{
  "type": "FeatureCollection",
  "features": [
    {
      "type": "Feature",
      "properties": {
        "norad_id": 67005,
        "name": "STARLINK-36148",
        "group": "last-30-days",
        "lat": -31.787097316135327,
        "lon": 127.927923643462,
        "alt_km": 315.765683005945,
        "timestamp": "2025-12-22T16:55:16.169695+00:00",
        "meta_object_name": "STARLINK-36148",
        "meta_object_id": "2025-293C",
        "meta_epoch": "2025-12-22T06:00:02.000160",
        "meta_mean_motion": 15.88364285,
        "meta_eccentricity": 0.00032988,
        "meta_inclination": 69.9944,
        "meta_ra_of_asc_node": 296.191,
        "meta_arg_of_pericenter": 269.3535,
        "meta_mean_anomaly": 224.9511,
        "meta_ephemeris_type": 0,
        "meta_classification_type": "U",
        "meta_norad_cat_id": 67005,
        "meta_element_set_no": 999,
        "meta_rev_at_epoch": 170,
        "meta_bstar": -0.0068075805,
        "meta_mean_motion_dot": -0.01650352,
        "meta_mean_motion_ddot": 0,
        "tle_line1": "1 67005U 25293C   25356.25002315 -.01650352  00000+0 -68076-2 0  9990",
        "tle_line2": "2 67005  69.9944 296.1910 0003298 269.3535 224.9511 15.88364285  1706"
      },
      "geometry": {
        "type": "Point",
        "coordinates": [
          127.927923643462,
          -31.787097316135327
        ]
      }
    },
    {
      "type": "Feature",
      "properties": {
        "norad_id": 67006,
        "name": "STARLINK-36156",
        "group": "last-30-days",
        "lat": -36.83044261772986,
        "lon": 130.70634561910683,
        "alt_km": 315.31438774246726,
        "timestamp": "2025-12-22T16:55:16.169707+00:00",
        "meta_object_name": "STARLINK-36156",
        "meta_object_id": "2025-293D",
        "meta_epoch": "2025-12-22T06:00:02.000160",
        "meta_mean_motion": 15.88253741,
        "meta_eccentricity": 0.00043857,
        "meta_inclination": 69.9942,
        "meta_ra_of_asc_node": 296.1835,
        "meta_arg_of_pericenter": 266.5328,
        "meta_mean_anomaly": 233.4281,
        "meta_ephemeris_type": 0,
        "meta_classification_type": "U",
        "meta_norad_cat_id": 67006,
        "meta_element_set_no": 999,
        "meta_rev_at_epoch": 170,
        "meta_bstar": -0.0064306137,
        "meta_mean_motion_dot": -0.01531,
        "meta_mean_motion_ddot": 0,
        "tle_line1": "1 67006U 25293D   25356.25002315 -.01531000  00000+0 -64306-2 0  9991",
        "tle_line2": "2 67006  69.9942 296.1835 0004385 266.5328 233.4281 15.88253741  1701"
      },
      "geometry": {
        "type": "Point",
        "coordinates": [
          130.70634561910683,
          -36.83044261772986
        ]
      }
    },
    {
      "type": "Feature",
      "properties": {
        "norad_id": 67007,
        "name": "STARLINK-36123",
        "group": "last-30-days",
        "lat": -34.53355879750565,
        "lon": 129.39481168304928,
        "alt_km": 315.3495989709618,
        "timestamp": "2025-12-22T16:55:16.169719+00:00",
        "meta_object_name": "STARLINK-36123",
        "meta_object_id": "2025-293E",
        "meta_epoch": "2025-12-22T06:00:02.000160",
        "meta_mean_motion": 15.88273839,
        "meta_eccentricity": 0.00041091,
        "meta_inclination": 69.994,
        "meta_ra_of_asc_node": 296.1866,
        "meta_arg_of_pericenter": 266.025,
        "meta_mean_anomaly": 231.3688,
        "meta_ephemeris_type": 0,
        "meta_classification_type": "U",
        "meta_norad_cat_id": 67007,
        "meta_element_set_no": 999,
        "meta_rev_at_epoch": 170,
        "meta_bstar": -0.0064412885,
        "meta_mean_motion_dot": -0.01534158,
        "meta_mean_motion_ddot": 0,
        "tle_line1": "1 67007U 25293E   25356.25002315 -.01534158  00000+0 -64413-2 0  9998",
        "tle_line2": "2 67007  69.9940 296.1866 0004109 266.0250 231.3688 15.88273839  1705"
      },
      "geometry": {
        "type": "Point",
        "coordinates": [
          129.39481168304928,
          -34.53355879750565
        ]
      }
    },
    {
      "type": "Feature",
      "properties": {
        "norad_id": 67008,
        "name": "STARLINK-36163",
        "group": "last-30-days",
        "lat": -39.755648711150265,
        "lon": 132.5107113340158,
        "alt_km": 316.1598883087827,
        "timestamp": "2025-12-22T16:55:16.169729+00:00",
        "meta_object_name": "STARLINK-36163",
        "meta_object_id": "2025-293F",
        "meta_epoch": "2025-12-22T06:00:02.000160",
        "meta_mean_motion": 15.88178563,
        "meta_eccentricity": 0.00039199,
        "meta_inclination": 69.9941,
        "meta_ra_of_asc_node": 296.1797,
        "meta_arg_of_pericenter": 281.6718,
        "meta_mean_anomaly": 221.6131,
        "meta_ephemeris_type": 0,
        "meta_classification_type": "U",
        "meta_norad_cat_id": 67008,
        "meta_element_set_no": 999,
        "meta_rev_at_epoch": 170,
        "meta_bstar": -0.0061642127,
        "meta_mean_motion_dot": -0.01470804,
        "meta_mean_motion_ddot": 0,
        "tle_line1": "1 67008U 25293F   25356.25002315 -.01470804  00000+0 -61642-2 0  9997",
        "tle_line2": "2 67008  69.9941 296.1797 0003919 281.6718 221.6131 15.88178563  1703"
      },
      "geometry": {
        "type": "Point",
        "coordinates": [
          132.5107113340158,
          -39.755648711150265
        ]
      }
    },
    {
      "type": "Feature",
      "properties": {
        "norad_id": 67009,
        "name": "STARLINK-36118",
        "group": "last-30-days",
        "lat": -42.17291346238575,
        "lon": 134.13669104602118,
        "alt_km": 316.54970647208575,
        "timestamp": "2025-12-22T16:55:16.169740+00:00",
        "meta_object_name": "STARLINK-36118",
        "meta_object_id": "2025-293G",
        "meta_epoch": "2025-12-22T06:00:02.000160",
        "meta_mean_motion": 15.88151824,
        "meta_eccentricity": 0.00036233,
        "meta_inclination": 69.994,
        "meta_ra_of_asc_node": 296.1763,
        "meta_arg_of_pericenter": 286.9257,
        "meta_mean_anomaly": 219.1162,
        "meta_ephemeris_type": 0,
        "meta_classification_type": "U",
        "meta_norad_cat_id": 67009,
        "meta_element_set_no": 999,
        "meta_rev_at_epoch": 164,
        "meta_bstar": -0.0061678572,
        "meta_mean_motion_dot": -0.0146951,
        "meta_mean_motion_ddot": 0,
        "tle_line1": "1 67009U 25293G   25356.25002315 -.01469510  00000+0 -61679-2 0  9990",
        "tle_line2": "2 67009  69.9940 296.1763 0003623 286.9257 219.1162 15.88151824  1644"
      },
      "geometry": {
        "type": "Point",
        "coordinates": [
          134.13669104602118,
          -42.17291346238575
        ]
      }
    },
    {
      "type": "Feature",
      "properties": {
        "norad_id": 67010,
        "name": "STARLINK-36189",
        "group": "last-30-days",
        "lat": -46.465721156931686,
        "lon": 137.4083815729932,
        "alt_km": 316.02957603133746,
        "timestamp": "2025-12-22T16:55:16.169750+00:00",
        "meta_object_name": "STARLINK-36189",
        "meta_object_id": "2025-293H",
        "meta_epoch": "2025-12-22T06:00:02.000160",
        "meta_mean_motion": 15.88145789,
        "meta_eccentricity": 0.00034095,
        "meta_inclination": 69.9939,
        "meta_ra_of_asc_node": 296.1704,
        "meta_arg_of_pericenter": 267.5596,
        "meta_mean_anomaly": 243.3704,
        "meta_ephemeris_type": 0,
        "meta_classification_type": "U",
        "meta_norad_cat_id": 67010,
        "meta_element_set_no": 999,
        "meta_rev_at_epoch": 170,
        "meta_bstar": -0.0061343526,
        "meta_mean_motion_dot": -0.01461976,
        "meta_mean_motion_ddot": 0,
        "tle_line1": "1 67010U 25293H   25356.25002315 -.01461976  00000+0 -61344-2 0  9999",
        "tle_line2": "2 67010  69.9939 296.1704 0003409 267.5596 243.3704 15.88145789  1703"
      },
      "geometry": {
        "type": "Point",
        "coordinates": [
          137.4083815729932,
          -46.465721156931686
        ]
      }
    },
    {
      "type": "Feature",
      "properties": {
        "norad_id": 67011,
        "name": "STARLINK-36167",
        "group": "last-30-days",
        "lat": -44.057319520753225,
        "lon": 135.50523653113723,
        "alt_km": 316.3975122373686,
        "timestamp": "2025-12-22T16:55:16.169759+00:00",
        "meta_object_name": "STARLINK-36167",
        "meta_object_id": "2025-293J",
        "meta_epoch": "2025-12-22T06:00:02.000160",
        "meta_mean_motion": 15.88151264,
        "meta_eccentricity": 0.00037823,
        "meta_inclination": 69.9936,
        "meta_ra_of_asc_node": 296.1731,
        "meta_arg_of_pericenter": 284.0026,
        "meta_mean_anomaly": 224.1834,
        "meta_ephemeris_type": 0,
        "meta_classification_type": "U",
        "meta_norad_cat_id": 67011,
        "meta_element_set_no": 999,
        "meta_rev_at_epoch": 164,
        "meta_bstar": -0.0062003849,
        "meta_mean_motion_dot": -0.01476358,
        "meta_mean_motion_ddot": 0,
        "tle_line1": "1 67011U 25293J   25356.25002315 -.01476358  00000+0 -62004-2 0  9994",
        "tle_line2": "2 67011  69.9936 296.1731 0003782 284.0026 224.1834 15.88151264  1646"
      },
      "geometry": {
        "type": "Point",
        "coordinates": [
          135.50523653113723,
          -44.057319520753225
        ]
      }
    }
  ]
}